address,city,province,postal_code,country,data_a,data_b,data_c
100 St George St,Toronto,Ontario,M5S 3G3,Canada,Chucho,Meads,139.19.63.34
55 Harbord St,Toronto,Ontario,M5S 2W6,Canada,Gina,Josowitz,127.12.253.62
191 College St,Toronto,Ontario,M5T 1P9,Canada,Alvie,Hawkett,83.247.232.232
585 University Ave,Toronto,Ontario,M5G 2N2,Canada,Yul,Locksley,135.106.203.69
444 Yonge St,Toronto,Ontario,M5B 2H4,Canada,Lavinie,Sissons,76.124.70.32
121 Dundas St W,Toronto,Ontario,M5G 1C4,Canada,Alexandra,Shelliday,248.206.26.197
100 Queen St W,Toronto,Ontario,M5H 2N2,Canada,Elbert,Tichner,240.42.57.210
483 Bay St,Toronto,Ontario,M5G 2C9,Canada,Katherina,Lamcken,179.207.12.209
201 Winchester St,Toronto,Ontario,M4X 1B8,Canada,Arman,Lascelles,182.172.251.102
288 Bremner Blvd,Toronto,Ontario,M5V 3L9,Canada,Magdaia,Trayford,69.193.161.115
790 Queen St W,Toronto,Ontario,M6J 1G3,Canada,Ethan,Hughs,116.129.232.232
55 Mill St,Toronto,Ontario,M5A 3C4,Canada,Pearline,Puttan,97.58.102.235
640 Dundas St E,Toronto,Ontario,M5A 2B9,Canada,Carley,Colley,249.37.31.130
111 Richmond St W #12,Toronto,Ontario,M5H 2G4,Canada,Dawn,Pinwill,137.242.18.191
589 Queen St W Unit 4,Toronto,Ontario,M5V 2B7,Canada,Alyosha,Dondon,135.198.153.11
890 King St W,Toronto,Ontario,M5V 1P2,Canada,Maurits,Chapling,250.2.200.136
85 Hanna Ave #104,Toronto,Ontario,M6K 3S3,Canada,Osbourne,Logie,229.127.249.171
1479 Dundas St W,Toronto,Ontario,M6J 1Y8,Canada,Tracy,Mountjoy,249.192.138.116
878 Bloor St W,Toronto,Ontario,M6G 1M5,Canada,Auguste,Shaxby,24.235.117.108
200 Christie St,Toronto,Ontario,M6G 3B6,Canada,Juieta,Berns,10.88.64.146
840 Dupont St,Toronto,Ontario,M6G 1Z8,Canada,Bobinette,Tomovic,215.17.16.7
1246 Shaw St,Toronto,Ontario,M6G 3P1,Canada,Loralyn,O'Finan,246.116.158.175
600 Bloor St W,Toronto,Ontario,M6G 1K4,Canada,Ganny,Keyzman,120.19.143.126
55 Harbord St,Toronto,Ontario,M5S 2W6,Canada,Rani,Rosini,154.21.84.92
431 College St,Toronto,Ontario,M5T 1T1,Canada,Marco,Insley,102.151.169.19
14 Madison Ave,Toronto,Ontario,M5R 2S1,Canada,Shara,Pacitti,26.178.80.239
314 Queen St W,Toronto,Ontario,M5V 2A2,Canada,Farlee,Podbury,206.179.40.133